NOAA 15                 
1 25338U 98030A   22356.51222164  .00000157  00000+0  83450-4 0  9998
2 25338  98.6260  23.4221 0011401 107.9964 252.2460 14.26211055280076
DMSP 5D-3 F15 (USA 147) 
1 25991U 99067A   22356.44917608  .00000182  00000+0  11457-3 0  9995
2 25991  99.0648 351.3644 0010430  21.4637 153.0309 14.16614247190402
DMSP 5D-3 F16 (USA 172) 
1 28054U 03048A   22356.45343611  .00000113  00000+0  84002-4 0  9991
2 28054  99.0026 348.3704 0007847 140.9828  10.6642 14.13718185989581
NOAA 18                 
1 28654U 05018A   22356.45046447  .00000202  00000+0  13267-3 0  9996
2 28654  98.9311  66.5619 0014737 157.1742 203.0088 14.12825772906612
METEOSAT-9 (MSG-2)      
1 28912U 05049B   22355.96485914  .00000145  00000+0  00000+0 0  9991
2 28912   6.4433  65.0483 0000560 214.5286 203.9227  1.00272343 62318
EWS-G1 (GOES 13)        
1 29155U 06018A   22356.19651403  .00000057  00000+0  00000+0 0  9994
2 29155   1.0563  93.2994 0006171 153.2097 336.5026  1.00275466 60740
DMSP 5D-3 F17 (USA 191) 
1 29522U 06050A   22356.49801731  .00000150  00000+0  10129-3 0  9993
2 29522  98.7606   7.9784 0010835  86.8320 273.4092 14.14150882832483
FENGYUN 3A              
1 32958U 08026A   22356.41636540  .00000118  00000+0  76772-4 0  9992
2 32958  98.5309 311.6126 0008368 193.2613 166.8344 14.18772949754980
FENGYUN 2E              
1 33463U 08066A   22355.79071681 -.00000188  00000+0  00000+0 0  9991
2 33463   6.3214  64.1780 0001050 263.0081 134.7438  1.00271630 51320
NOAA 19                 
1 33591U 09005A   22356.47333202  .00000201  00000+0  13331-3 0  9993
2 33591  99.1262  34.3620 0014182  23.7715 336.4108 14.12654797714992
GOES 14                 
1 35491U 09033A   22355.87661094 -.00000070  00000+0  00000+0 0  9991
2 35491   0.1433 255.7615 0017576 329.5818  76.4229  1.00269878 49383
METEOR-M 1              
1 35865U 09049A   22355.93733651  .00000102  00000+0  65054-4 0  9999
2 35865  98.5554 320.6028 0003175  55.3213 304.8264 14.22389688688337
DMSP 5D-3 F18 (USA 210) 
1 35951U 09057A   22356.54602096  .00000235  00000+0  14745-3 0  9997
2 35951  98.7462 331.5164 0010096 272.5742  87.4275 14.13608888679685
GOES 15                 
1 36411U 10008A   22356.45336274  .00000073  00000+0  00000+0 0  9994
2 36411   0.0968 285.9687 0003655 262.9173 297.9183  1.00260075 46891
COMS 1                  
1 36744U 10032A   22355.45604959 -.00000321  00000+0  00000+0 0  9994
2 36744   1.5485  91.5602 0000582 177.9072 112.8900  1.00270136 38316
FENGYUN 3B              
1 37214U 10059A   22355.97326571  .00000084  00000+0  67957-4 0  9998
2 37214  99.0918   5.2784 0022124 184.0304 176.0692 14.14280221627463
SUOMI NPP               
1 37849U 11061A   22356.41138227  .00000088  00000+0  62596-4 0  9993
2 37849  98.7524 292.4974 0001322  92.3554  55.1850 14.19527929577856
FENGYUN 2F              
1 38049U 12002A   22355.55628003 -.00000335  00000+0  00000+0 0  9995
2 38049   4.2489  78.2271 0002833 274.4509  49.5361  1.00258651 40119
METEOSAT-10 (MSG-3)     
1 38552U 12035B   22355.25360466  .00000085  00000+0  00000+0 0  9994
2 38552   1.8312  50.1916 0000948 178.5657 321.8221  1.00270321 38086
METOP-B                 
1 38771U 12049A   22356.41293564  .00000134  00000+0  81482-4 0  9998
2 38771  98.7059  53.5165 0001066 131.9046 238.5555 14.21487296532432
FENGYUN 3C              
1 39260U 13052A   22356.23692346  .00000098  00000+0  70543-4 0  9993
2 39260  98.4401  14.7088 0012211  93.2461 267.0131 14.15968836478491
METEOR-M 2              
1 40069U 14037A   22356.29263877  .00000036  00000+0  35757-4 0  9995
2 40069  98.4263   5.4740 0006468 129.3736 230.8041 14.20730871438532
HIMAWARI-8              
1 40267U 14060A   22355.99007552 -.00000252  00000+0  00000+0 0  9992
2 40267   0.0008 101.6996 0000928 184.5070 301.4230  1.00271995 30094
FENGYUN 2G              
1 40367U 14090A   22356.06053664 -.00000276  00000+0  00000+0 0  9996
2 40367   2.4048  87.5485 0002007 228.2182 255.6972  1.00260462 29278
METEOSAT-11 (MSG-4)     
1 40732U 15034A   22355.32342389  .00000021  00000+0  00000+0 0  9991
2 40732   0.4710 355.9313 0000497  99.4913 110.9060  1.00273398 27249
ELEKTRO-L 2             
1 41105U 15074A   22356.27908951 -.00000096  00000+0  00000+0 0  9991
2 41105   3.4591  85.9127 0002647 150.8087 300.1284  1.00272014 25759
HIMAWARI-9              
1 41836U 16064A   22356.25813329 -.00000253  00000+0  00000+0 0  9999
2 41836   0.0111 291.0697 0001254  27.8047   5.6082  1.00270616 22537
GOES 16                 
1 41866U 16071A   22356.40250889 -.00000227  00000+0  00000+0 0  9994
2 41866   0.0733 250.5814 0000592  71.9086 198.1672  1.00270596 22347
FENGYUN 4A              
1 41882U 16077A   22356.61369030 -.00000309  00000+0  00000+0 0  9991
2 41882   0.0306 339.8721 0005639  67.1510   9.7097  1.00270198 22228
CYGFM05                 
1 41884U 16078A   22356.61364748  .00004016  00000+0  19623-3 0  9998
2 41884  34.9555 108.9921 0014795 335.9815  24.0206 15.17598898333473
CYGFM04                 
1 41885U 16078B   22355.48030888  .00005126  00000+0  24622-3 0  9996
2 41885  34.9490 104.2272 0013195 344.4749  15.5558 15.18147398333251
CYGFM02                 
1 41886U 16078C   22355.40058625  .00004756  00000+0  22826-3 0  9990
2 41886  34.9580 106.9939 0013950 337.1975  22.8117 15.18188351333324
CYGFM01                 
1 41887U 16078D   22355.58728419  .00005086  00000+0  24951-3 0  9993
2 41887  34.9522 118.0949 0015380 326.3739  33.5996 15.17388511333281
CYGFM08                 
1 41888U 16078E   22356.49919713  .00004286  00000+0  20757-3 0  9995
2 41888  34.9500 104.1499 0014272 347.1223  12.9124 15.17894100333473
CYGFM07                 
1 41890U 16078G   22355.43760499  .00005048  00000+0  24264-3 0  9990
2 41890  34.9515 104.2804 0012671 342.0830  17.9435 15.18132824333257
CYGFM03                 
1 41891U 16078H   22355.50190520  .00005090  00000+0  24467-3 0  9993
2 41891  34.9548 104.3960 0012200 340.5355  19.4891 15.18136523333254
FENGYUN 3D              
1 43010U 17072A   22356.24098303  .00000131  00000+0  84051-4 0  9998
2 43010  98.8389 300.0858 0002395  90.2012 269.9440 14.19120814264403
NOAA 20                 
1 43013U 17073A   22356.48732886  .00000071  00000+0  54570-4 0  9995
2 43013  98.7362 292.2383 0000740 113.9713 246.1541 14.19537755263903
GOES 17                 
1 43226U 18022A   22356.51461069  .00000119  00000+0  00000+0 0  9999
2 43226   0.0073 113.2002 0000076 181.5632 204.2076  1.00271072 17679
FENGYUN 2H              
1 43491U 18050A   22356.48694795 -.00000108  00000+0  00000+0 0  9993
2 43491   1.6241  93.8092 0002434  68.5732 183.0555  1.00274667 16740
METOP-C                 
1 43689U 18087A   22356.44749821  .00000131  00000+0  79962-4 0  9992
2 43689  98.7105  53.5976 0002876 195.0934 165.0158 14.21493205214016
GEO-KOMPSAT-2A          
1 43823U 18100A   22356.42531848 -.00000322  00000+0  00000+0 0  9999
2 43823   0.0500 156.2688 0000585 305.6671 270.4001  1.00269456 14900
METEOR-M2 2             
1 44387U 19038A   22356.21619950  .00000063  00000+0  47098-4 0  9998
2 44387  98.7503 315.7293 0002365  87.0297 273.1161 14.23736123180124
FENGYUN 3E              
1 49008U 21062A   22356.25850839  .00000038  00000+0  38760-4 0  9998
2 49008  98.7172 355.3107 0002234 139.8371 220.2985 14.19749837 75962
GOES 18                 
1 51850U 22021A   22354.42444059  .00000124  00000+0  00000+0 0  9999
2 51850   0.0437 171.2722 0000946  82.9050 210.6858  1.00270542  3004
NOAA 21 (JPSS-2)        
1 54234U 22150A   22356.50523476  .00000099  00000+0  67701-4 0  9990
2 54234  98.7003 292.3834 0001085  86.0415 274.0885 14.19547638  5980
METEOSAT-12             
1 54743U 22170C   22353.31524981 -.00000002  00000+0  00000+0 0  9994
2 54743   5.5504 217.8990 7131836 181.4542 110.3708  2.25104636   115
